{
  "type": "FeatureCollection",
  "features": [
    {
      "type": "Feature",
      "properties": {
        "norad_id": 36147,
        "name": "FENGYUN 1C DEB",
        "group": "fengyun-1c-debris",
        "lat": -13.925750696988658,
        "lon": -131.0656541686084,
        "alt_km": 1022.5048760769232,
        "timestamp": "2025-12-08T03:50:07.284891+00:00",
        "meta_object_name": "FENGYUN 1C DEB",
        "meta_object_id": "1999-025DRU",
        "meta_epoch": "2025-12-06T11:35:31.438464",
        "meta_mean_motion": 13.46487115,
        "meta_eccentricity": 0.04411963,
        "meta_inclination": 98.5268,
        "meta_ra_of_asc_node": 49.6332,
        "meta_arg_of_pericenter": 279.0005,
        "meta_mean_anomaly": 76.1459,
        "meta_ephemeris_type": 0,
        "meta_classification_type": "U",
        "meta_norad_cat_id": 36147,
        "meta_element_set_no": 999,
        "meta_rev_at_epoch": 59913,
        "meta_bstar": 0.0028331014,
        "meta_mean_motion_dot": 3.048e-05,
        "meta_mean_motion_ddot": 0,
        "tle_line1": "1 36147U 99025DRU 25340.48300276  .00003048  00000+0  28331-2 0  9993",
        "tle_line2": "2 36147  98.5268  49.6332 0441196 279.0005  76.1459 13.46487115599135"
      },
      "geometry": {
        "type": "Point",
        "coordinates": [
          -131.0656541686084,
          -13.925750696988658
        ]
      }
    },
    {
      "type": "Feature",
      "properties": {
        "norad_id": 36148,
        "name": "FENGYUN 1C DEB",
        "group": "fengyun-1c-debris",
        "lat": -55.15359373599969,
        "lon": 1.137071810181509,
        "alt_km": 1072.6887002283884,
        "timestamp": "2025-12-08T03:50:07.284901+00:00",
        "meta_object_name": "FENGYUN 1C DEB",
        "meta_object_id": "1999-025DRV",
        "meta_epoch": "2025-12-06T07:20:19.682304",
        "meta_mean_motion": 13.84847219,
        "meta_eccentricity": 0.02850315,
        "meta_inclination": 98.422,
        "meta_ra_of_asc_node": 191.756,
        "meta_arg_of_pericenter": 7.1766,
        "meta_mean_anomaly": 353.3342,
        "meta_ephemeris_type": 0,
        "meta_classification_type": "U",
        "meta_norad_cat_id": 36148,
        "meta_element_set_no": 999,
        "meta_rev_at_epoch": 90155,
        "meta_bstar": 0.0053018376,
        "meta_mean_motion_dot": 8.171e-05,
        "meta_mean_motion_ddot": 0,
        "tle_line1": "1 36148U 99025DRV 25340.30578336  .00008171  00000+0  53018-2 0  9991",
        "tle_line2": "2 36148  98.4220 191.7560 0285031   7.1766 353.3342 13.84847219901554"
      },
      "geometry": {
        "type": "Point",
        "coordinates": [
          1.137071810181509,
          -55.15359373599969
        ]
      }
    },
    {
      "type": "Feature",
      "properties": {
        "norad_id": 36152,
        "name": "FENGYUN 1C DEB",
        "group": "fengyun-1c-debris",
        "lat": -56.068285067507325,
        "lon": -171.21507921798178,
        "alt_km": 802.5792019146083,
        "timestamp": "2025-12-08T03:50:07.284911+00:00",
        "meta_object_name": "FENGYUN 1C DEB",
        "meta_object_id": "1999-025DRZ",
        "meta_epoch": "2025-12-05T08:38:09.614400",
        "meta_mean_motion": 14.17194433,
        "meta_eccentricity": 0.00555046,
        "meta_inclination": 98.7557,
        "meta_ra_of_asc_node": 19.2702,
        "meta_arg_of_pericenter": 233.3678,
        "meta_mean_anomaly": 126.2385,
        "meta_ephemeris_type": 0,
        "meta_classification_type": "U",
        "meta_norad_cat_id": 36152,
        "meta_element_set_no": 999,
        "meta_rev_at_epoch": 64052,
        "meta_bstar": 0.0020553524,
        "meta_mean_motion_dot": 4.166e-05,
        "meta_mean_motion_ddot": 0,
        "tle_line1": "1 36152U 99025DRZ 25339.35983350  .00004166  00000+0  20554-2 0  9994",
        "tle_line2": "2 36152  98.7557  19.2702 0055504 233.3678 126.2385 14.17194433640523"
      },
      "geometry": {
        "type": "Point",
        "coordinates": [
          -171.21507921798178,
          -56.068285067507325
        ]
      }
    },
    {
      "type": "Feature",
      "properties": {
        "norad_id": 36163,
        "name": "FENGYUN 1C DEB",
        "group": "fengyun-1c-debris",
        "lat": 42.176402732202156,
        "lon": 177.4797091822101,
        "alt_km": 675.2193235706045,
        "timestamp": "2025-12-08T03:50:07.284921+00:00",
        "meta_object_name": "FENGYUN 1C DEB",
        "meta_object_id": "1999-025DSL",
        "meta_epoch": "2025-11-27T12:26:15.654336",
        "meta_mean_motion": 14.58361311,
        "meta_eccentricity": 0.00369307,
        "meta_inclination": 99.0776,
        "meta_ra_of_asc_node": 174.1952,
        "meta_arg_of_pericenter": 119.0745,
        "meta_mean_anomaly": 241.4158,
        "meta_ephemeris_type": 0,
        "meta_classification_type": "U",
        "meta_norad_cat_id": 36163,
        "meta_element_set_no": 999,
        "meta_rev_at_epoch": 88965,
        "meta_bstar": 0.0029707469,
        "meta_mean_motion_dot": 0.00013857,
        "meta_mean_motion_ddot": 0,
        "tle_line1": "1 36163U 99025DSL 25331.51823674  .00013857  00000+0  29707-2 0  9994",
        "tle_line2": "2 36163  99.0776 174.1952 0036930 119.0745 241.4158 14.58361311889650"
      },
      "geometry": {
        "type": "Point",
        "coordinates": [
          177.4797091822101,
          42.176402732202156
        ]
      }
    },
    {
      "type": "Feature",
      "properties": {
        "norad_id": 36167,
        "name": "FENGYUN 1C DEB",
        "group": "fengyun-1c-debris",
        "lat": -57.68023910889768,
        "lon": -96.67714404618275,
        "alt_km": 698.8655470712883,
        "timestamp": "2025-12-08T03:50:07.284931+00:00",
        "meta_object_name": "FENGYUN 1C DEB",
        "meta_object_id": "1999-025DSQ",
        "meta_epoch": "2025-12-03T11:25:18.106464",
        "meta_mean_motion": 14.49112363,
        "meta_eccentricity": 0.00694671,
        "meta_inclination": 98.8131,
        "meta_ra_of_asc_node": 244.2376,
        "meta_arg_of_pericenter": 272.8926,
        "meta_mean_anomaly": 86.4318,
        "meta_ephemeris_type": 0,
        "meta_classification_type": "U",
        "meta_norad_cat_id": 36167,
        "meta_element_set_no": 999,
        "meta_rev_at_epoch": 67145,
        "meta_bstar": 0.00170376,
        "meta_mean_motion_dot": 6.631e-05,
        "meta_mean_motion_ddot": 0,
        "tle_line1": "1 36167U 99025DSQ 25337.47590401  .00006631  00000+0  17038-2 0  9994",
        "tle_line2": "2 36167  98.8131 244.2376 0069467 272.8926  86.4318 14.49112363671458"
      },
      "geometry": {
        "type": "Point",
        "coordinates": [
          -96.67714404618275,
          -57.68023910889768
        ]
      }
    },
    {
      "type": "Feature",
      "properties": {
        "norad_id": 36173,
        "name": "FENGYUN 1C DEB",
        "group": "fengyun-1c-debris",
        "lat": 33.43190568252754,
        "lon": -65.90907505607731,
        "alt_km": 907.1275207137578,
        "timestamp": "2025-12-08T03:50:07.284941+00:00",
        "meta_object_name": "FENGYUN 1C DEB",
        "meta_object_id": "1999-025DSW",
        "meta_epoch": "2025-11-27T03:07:28.371072",
        "meta_mean_motion": 14.25142788,
        "meta_eccentricity": 0.01460397,
        "meta_inclination": 98.2105,
        "meta_ra_of_asc_node": 289.2336,
        "meta_arg_of_pericenter": 231.4906,
        "meta_mean_anomaly": 127.3105,
        "meta_ephemeris_type": 0,
        "meta_classification_type": "U",
        "meta_norad_cat_id": 36173,
        "meta_element_set_no": 999,
        "meta_rev_at_epoch": 58868,
        "meta_bstar": 0.00039734703,
        "meta_mean_motion_dot": 1e-05,
        "meta_mean_motion_ddot": 0,
        "tle_line1": "1 36173U 99025DSW 25331.13018948  .00001000  00000+0  39735-3 0  9993",
        "tle_line2": "2 36173  98.2105 289.2336 0146039 231.4906 127.3105 14.25142788588684"
      },
      "geometry": {
        "type": "Point",
        "coordinates": [
          -65.90907505607731,
          33.43190568252754
        ]
      }
    },
    {
      "type": "Feature",
      "properties": {
        "norad_id": 36180,
        "name": "FENGYUN 1C DEB",
        "group": "fengyun-1c-debris",
        "lat": 80.89847201673587,
        "lon": -22.264491939601346,
        "alt_km": 702.1856479882299,
        "timestamp": "2025-12-08T03:50:07.284951+00:00",
        "meta_object_name": "FENGYUN 1C DEB",
        "meta_object_id": "1999-025DTD",
        "meta_epoch": "2025-12-05T21:21:22.276224",
        "meta_mean_motion": 14.20680074,
        "meta_eccentricity": 0.02106275,
        "meta_inclination": 98.4572,
        "meta_ra_of_asc_node": 43.7979,
        "meta_arg_of_pericenter": 50.8055,
        "meta_mean_anomaly": 311.1621,
        "meta_ephemeris_type": 0,
        "meta_classification_type": "U",
        "meta_norad_cat_id": 36180,
        "meta_element_set_no": 999,
        "meta_rev_at_epoch": 70486,
        "meta_bstar": 0.00091841135,
        "meta_mean_motion_dot": 2.432e-05,
        "meta_mean_motion_ddot": 0,
        "tle_line1": "1 36180U 99025DTD 25339.88984116  .00002432  00000+0  91841-3 0  9996",
        "tle_line2": "2 36180  98.4572  43.7979 0210627  50.8055 311.1621 14.20680074704867"
      },
      "geometry": {
        "type": "Point",
        "coordinates": [
          -22.264491939601346,
          80.89847201673587
        ]
      }
    }
  ]
}